[
  {
    "OBJECT_NAME": "STARLINK-11354 [DTC]",
    "OBJECT_ID": "24184A",
    "EPOCH": "2025-11-11T02:54:50.830560",
    "MEAN_MOTION": 15.69713897,
    "ECCENTRICITY": 8.8e-05,
    "INCLINATION": 53.1588,
    "RA_OF_ASC_NODE": 100.8534,
    "ARG_OF_PERICENTER": 91.0161,
    "MEAN_ANOMALY": 269.0958,
    "EPHEMERIS_TYPE": 0,
    "CLASSIFICATION_TYPE": "U",
    "NORAD_CAT_ID": 61532,
    "ELEMENT_SET_NO": 999,
    "REV_AT_EPOCH": 6179,
    "BSTAR": 1.1037e-05,
    "MEAN_MOTION_DOT": 7.49e-06,
    "MEAN_MOTION_DDOT": 0.0,
    "TLE_LINE1": "1 61532U 24184A   25315.12142165  .00000749  00000+0  11037-4 0  9999",
    "TLE_LINE2": "2 61532  53.1588 100.8534 0000880  91.0161 269.0958 15.69713897 61792",
    "COMMENT": "Grouped by shell and plane from TLE"
  },
  {
    "OBJECT_NAME": "STARLINK-11323 [DTC]",
    "OBJECT_ID": "24184B",
    "EPOCH": "2025-11-10T19:02:18.028608",
    "MEAN_MOTION": 15.69736598,
    "ECCENTRICITY": 7.05e-05,
    "INCLINATION": 53.1589,
    "RA_OF_ASC_NODE": 102.3571,
    "ARG_OF_PERICENTER": 247.7769,
    "MEAN_ANOMALY": 112.3174,
    "EPHEMERIS_TYPE": 0,
    "CLASSIFICATION_TYPE": "U",
    "NORAD_CAT_ID": 61533,
    "ELEMENT_SET_NO": 999,
    "REV_AT_EPOCH": 6174,
    "BSTAR": 0.00012477,
    "MEAN_MOTION_DOT": 0.00014571,
    "MEAN_MOTION_DDOT": 0.0,
    "TLE_LINE1": "1 61533U 24184B   25314.79326422  .00014571  00000+0  12477-3 0  9998",
    "TLE_LINE2": "2 61533  53.1589 102.3571 0000705 247.7769 112.3174 15.69736598 61740",
    "COMMENT": "Grouped by shell and plane from TLE"
  },
  {
    "OBJECT_NAME": "STARLINK-11338 [DTC]",
    "OBJECT_ID": "24184C",
    "EPOCH": "2025-11-11T02:47:46.822560",
    "MEAN_MOTION": 15.69711312,
    "ECCENTRICITY": 5.71e-05,
    "INCLINATION": 53.1589,
    "RA_OF_ASC_NODE": 100.8205,
    "ARG_OF_PERICENTER": 131.7332,
    "MEAN_ANOMALY": 228.3735,
    "EPHEMERIS_TYPE": 0,
    "CLASSIFICATION_TYPE": "U",
    "NORAD_CAT_ID": 61534,
    "ELEMENT_SET_NO": 999,
    "REV_AT_EPOCH": 6179,
    "BSTAR": 1.5793e-05,
    "MEAN_MOTION_DOT": 1.326e-05,
    "MEAN_MOTION_DDOT": 0.0,
    "TLE_LINE1": "1 61534U 24184C   25315.11651415  .00001326  00000+0  15793-4 0  9998",
    "TLE_LINE2": "2 61534  53.1589 100.8205 0000571 131.7332 228.3735 15.69711312 61790",
    "COMMENT": "Grouped by shell and plane from TLE"
  },
  {
    "OBJECT_NAME": "STARLINK-11362 [DTC]",
    "OBJECT_ID": "24184D",
    "EPOCH": "2025-11-10T09:38:05.126208",
    "MEAN_MOTION": 15.69711996,
    "ECCENTRICITY": 6.12e-05,
    "INCLINATION": 53.1571,
    "RA_OF_ASC_NODE": 104.1748,
    "ARG_OF_PERICENTER": 18.6119,
    "MEAN_ANOMALY": 341.4922,
    "EPHEMERIS_TYPE": 0,
    "CLASSIFICATION_TYPE": "U",
    "NORAD_CAT_ID": 61535,
    "ELEMENT_SET_NO": 999,
    "REV_AT_EPOCH": 6168,
    "BSTAR": 0.0,
    "MEAN_MOTION_DOT": -2.267e-05,
    "MEAN_MOTION_DDOT": 0.0,
    "TLE_LINE1": "1 61535U 24184D   25314.40144822 -.00002267  00000+0 -13866-4 0  9995",
    "TLE_LINE2": "2 61535  53.1571 104.1748 0000612  18.6119 341.4922 15.69711996 61684",
    "COMMENT": "Grouped by shell and plane from TLE"
  },
  {
    "OBJECT_NAME": "STARLINK-11295 [DTC]",
    "OBJECT_ID": "24184E",
    "EPOCH": "2025-11-11T02:33:38.587104",
    "MEAN_MOTION": 15.69720293,
    "ECCENTRICITY": 3.79e-05,
    "INCLINATION": 53.1593,
    "RA_OF_ASC_NODE": 100.755,
    "ARG_OF_PERICENTER": 90.0305,
    "MEAN_ANOMALY": 270.0756,
    "EPHEMERIS_TYPE": 0,
    "CLASSIFICATION_TYPE": "U",
    "NORAD_CAT_ID": 61536,
    "ELEMENT_SET_NO": 999,
    "REV_AT_EPOCH": 6179,
    "BSTAR": 8.6652e-06,
    "MEAN_MOTION_DOT": 4.63e-06,
    "MEAN_MOTION_DDOT": 0.0,
    "TLE_LINE1": "1 61536U 24184E   25315.10669661  .00000463  00000+0  86652-5 0  9995",
    "TLE_LINE2": "2 61536  53.1593 100.7550 0000379  90.0305 270.0756 15.69720293 61797",
    "COMMENT": "Grouped by shell and plane from TLE"
  },
  {
    "OBJECT_NAME": "STARLINK-11331 [DTC]",
    "OBJECT_ID": "24184F",
    "EPOCH": "2025-11-10T11:02:41.812224",
    "MEAN_MOTION": 15.69719696,
    "ECCENTRICITY": 8.59e-05,
    "INCLINATION": 53.1585,
    "RA_OF_ASC_NODE": 103.8295,
    "ARG_OF_PERICENTER": 43.3405,
    "MEAN_ANOMALY": 316.768,
    "EPHEMERIS_TYPE": 0,
    "CLASSIFICATION_TYPE": "U",
    "NORAD_CAT_ID": 61537,
    "ELEMENT_SET_NO": 999,
    "REV_AT_EPOCH": 6169,
    "BSTAR": 0.0,
    "MEAN_MOTION_DOT": -1.196e-05,
    "MEAN_MOTION_DDOT": 0.0,
    "TLE_LINE1": "1 61537U 24184F   25314.46020616 -.00001196  00000+0 -50148-5 0  9992",
    "TLE_LINE2": "2 61537  53.1585 103.8295 0000859  43.3405 316.7680 15.69719696 61692",
    "COMMENT": "Grouped by shell and plane from TLE"
  },
  {
    "OBJECT_NAME": "STARLINK-11325 [DTC]",
    "OBJECT_ID": "24184G",
    "EPOCH": "2025-11-10T17:02:21.478848",
    "MEAN_MOTION": 15.69725946,
    "ECCENTRICITY": 0.0001384,
    "INCLINATION": 53.156,
    "RA_OF_ASC_NODE": 102.5398,
    "ARG_OF_PERICENTER": 101.0447,
    "MEAN_ANOMALY": 259.0727,
    "EPHEMERIS_TYPE": 0,
    "CLASSIFICATION_TYPE": "U",
    "NORAD_CAT_ID": 61538,
    "ELEMENT_SET_NO": 999,
    "REV_AT_EPOCH": 6173,
    "BSTAR": 0.0,
    "MEAN_MOTION_DOT": -6.66e-06,
    "MEAN_MOTION_DDOT": 0.0,
    "TLE_LINE1": "1 61538U 24184G   25314.70997082 -.00000666  00000+0 -63554-6 0  9997",
    "TLE_LINE2": "2 61538  53.1560 102.5398 0001384 101.0447 259.0727 15.69725946 61739",
    "COMMENT": "Grouped by shell and plane from TLE"
  },
  {
    "OBJECT_NAME": "STARLINK-11332 [DTC]",
    "OBJECT_ID": "24184H",
    "EPOCH": "2025-11-10T16:55:18.613920",
    "MEAN_MOTION": 15.69712384,
    "ECCENTRICITY": 8.11e-05,
    "INCLINATION": 53.1614,
    "RA_OF_ASC_NODE": 102.5298,
    "ARG_OF_PERICENTER": 31.8117,
    "MEAN_ANOMALY": 328.2949,
    "EPHEMERIS_TYPE": 0,
    "CLASSIFICATION_TYPE": "U",
    "NORAD_CAT_ID": 61539,
    "ELEMENT_SET_NO": 999,
    "REV_AT_EPOCH": 6173,
    "BSTAR": 1.3989e-05,
    "MEAN_MOTION_DOT": 1.107e-05,
    "MEAN_MOTION_DDOT": 0.0,
    "TLE_LINE1": "1 61539U 24184H   25314.70507655  .00001107  00000+0  13989-4 0  9995",
    "TLE_LINE2": "2 61539  53.1614 102.5298 0000811  31.8117 328.2949 15.69712384 61734",
    "COMMENT": "Grouped by shell and plane from TLE"
  },
  {
    "OBJECT_NAME": "STARLINK-11350 [DTC]",
    "OBJECT_ID": "24184J",
    "EPOCH": "2025-11-10T16:48:14.428800",
    "MEAN_MOTION": 15.69714227,
    "ECCENTRICITY": 0.0001441,
    "INCLINATION": 53.1569,
    "RA_OF_ASC_NODE": 102.4751,
    "ARG_OF_PERICENTER": 93.149,
    "MEAN_ANOMALY": 266.9693,
    "EPHEMERIS_TYPE": 0,
    "CLASSIFICATION_TYPE": "U",
    "NORAD_CAT_ID": 61540,
    "ELEMENT_SET_NO": 999,
    "REV_AT_EPOCH": 6173,
    "BSTAR": 4.688800000000001e-06,
    "MEAN_MOTION_DOT": -2.1e-07,
    "MEAN_MOTION_DDOT": 0.0,
    "TLE_LINE1": "1 61540U 24184J   25314.70016700 -.00000021  00000+0  46888-5 0  9993",
    "TLE_LINE2": "2 61540  53.1569 102.4751 0001441  93.1490 266.9693 15.69714227 61735",
    "COMMENT": "Grouped by shell and plane from TLE"
  },
  {
    "OBJECT_NAME": "STARLINK-11357 [DTC]",
    "OBJECT_ID": "24184K",
    "EPOCH": "2025-11-11T03:23:06.635328",
    "MEAN_MOTION": 15.6969862,
    "ECCENTRICITY": 0.0001905,
    "INCLINATION": 53.1586,
    "RA_OF_ASC_NODE": 100.9789,
    "ARG_OF_PERICENTER": 95.5577,
    "MEAN_ANOMALY": 264.5659,
    "EPHEMERIS_TYPE": 0,
    "CLASSIFICATION_TYPE": "U",
    "NORAD_CAT_ID": 61541,
    "ELEMENT_SET_NO": 999,
    "REV_AT_EPOCH": 6179,
    "BSTAR": 3.5337000000000004e-05,
    "MEAN_MOTION_DOT": 3.691e-05,
    "MEAN_MOTION_DDOT": 0.0,
    "TLE_LINE1": "1 61541U 24184K   25315.14104902  .00003691  00000+0  35337-4 0  9996",
    "TLE_LINE2": "2 61541  53.1586 100.9789 0001905  95.5577 264.5659 15.69698620 61796",
    "COMMENT": "Grouped by shell and plane from TLE"
  },
  {
    "OBJECT_NAME": "STARLINK-11322 [DTC]",
    "OBJECT_ID": "24184L",
    "EPOCH": "2025-11-10T16:34:14.557728",
    "MEAN_MOTION": 15.69723709,
    "ECCENTRICITY": 0.0001555,
    "INCLINATION": 53.1544,
    "RA_OF_ASC_NODE": 103.1444,
    "ARG_OF_PERICENTER": 75.3493,
    "MEAN_ANOMALY": 284.7697,
    "EPHEMERIS_TYPE": 0,
    "CLASSIFICATION_TYPE": "U",
    "NORAD_CAT_ID": 61542,
    "ELEMENT_SET_NO": 999,
    "REV_AT_EPOCH": 6278,
    "BSTAR": 3.0269000000000004e-05,
    "MEAN_MOTION_DOT": 3.081e-05,
    "MEAN_MOTION_DDOT": 0.0,
    "TLE_LINE1": "1 61542U 24184L   25314.69044627  .00003081  00000+0  30269-4 0  9995",
    "TLE_LINE2": "2 61542  53.1544 103.1444 0001555  75.3493 284.7697 15.69723709 62781",
    "COMMENT": "Grouped by shell and plane from TLE"
  },
  {
    "OBJECT_NAME": "STARLINK-11364 [DTC]",
    "OBJECT_ID": "24184M",
    "EPOCH": "2025-11-11T03:08:58.117344",
    "MEAN_MOTION": 15.69733074,
    "ECCENTRICITY": 0.000116,
    "INCLINATION": 53.1557,
    "RA_OF_ASC_NODE": 100.9126,
    "ARG_OF_PERICENTER": 89.3094,
    "MEAN_ANOMALY": 270.8056,
    "EPHEMERIS_TYPE": 0,
    "CLASSIFICATION_TYPE": "U",
    "NORAD_CAT_ID": 61543,
    "ELEMENT_SET_NO": 999,
    "REV_AT_EPOCH": 6179,
    "BSTAR": 0.0,
    "MEAN_MOTION_DOT": -4.028e-05,
    "MEAN_MOTION_DDOT": 0.0,
    "TLE_LINE1": "1 61543U 24184M   25315.13122821 -.00004028  00000+0 -28373-4 0  9996",
    "TLE_LINE2": "2 61543  53.1557 100.9126 0001160  89.3094 270.8056 15.69733074 61793",
    "COMMENT": "Grouped by shell and plane from TLE"
  },
  {
    "OBJECT_NAME": "STARLINK-11349 [DTC]",
    "OBJECT_ID": "24184N",
    "EPOCH": "2025-11-10T10:13:23.297376",
    "MEAN_MOTION": 15.6968099,
    "ECCENTRICITY": 0.0001564,
    "INCLINATION": 53.1557,
    "RA_OF_ASC_NODE": 104.3333,
    "ARG_OF_PERICENTER": 100.1324,
    "MEAN_ANOMALY": 259.987,
    "EPHEMERIS_TYPE": 0,
    "CLASSIFICATION_TYPE": "U",
    "NORAD_CAT_ID": 61544,
    "ELEMENT_SET_NO": 999,
    "REV_AT_EPOCH": 6168,
    "BSTAR": 8.4307e-05,
    "MEAN_MOTION_DOT": 9.624e-05,
    "MEAN_MOTION_DDOT": 0.0,
    "TLE_LINE1": "1 61544U 24184N   25314.42596409  .00009624  00000+0  84307-4 0  9999",
    "TLE_LINE2": "2 61544  53.1557 104.3333 0001564 100.1324 259.9870 15.69680990 61686",
    "COMMENT": "Grouped by shell and plane from TLE"
  }
]